start=new Date('2021-10-14T00:00:00.000Z').valueOf();
sats=[{"ELEMENT_SET_NO":"999","MEAN_ELEMENT_THEORY":"SGP4","ARG_OF_PERICENTER":"83.7928","SEMIMAJOR_AXIS":"6925.369","CENTER_NAME":"EARTH","OBJECT_ID":"2020-019E","DECAY_DATE":null,"EPOCH":"2021-10-13T22:49:04.876032","MEAN_MOTION_DOT":"0.00000418","BSTAR":"0.00004698500000","MEAN_MOTION_DDOT":"0.0000000000000","RA_OF_ASC_NODE":"154.0437","OBJECT_TYPE":"PAYLOAD","REF_FRAME":"TEME","APOAPSIS":"548.292","MEAN_ANOMALY":"276.3235","TLE_LINE1":"1 45364U 20019E   21286.95075088  .00000418  00000-0  46985-4 0  9994","LAUNCH_DATE":"2020-03-18","MEAN_MOTION":"15.06393200","EPHEMERIS_TYPE":"0","INCLINATION":"53.0539","GP_ID":"187099723","SITE":"AFETR","TLE_LINE2":"2 45364  53.0539 154.0437 0001527  83.7928 276.3235 15.06393200 87816","COUNTRY_CODE":"US","FILE":"3161149","NORAD_CAT_ID":"45364","RCS_SIZE":"LARGE","CLASSIFICATION_TYPE":"U","PERIOD":"95.593","ECCENTRICITY":"0.00015270","PERIAPSIS":"546.177","OBJECT_NAME":"STARLINK-1313","TIME_SYSTEM":"UTC","REV_AT_EPOCH":"8781"},{"REV_AT_EPOCH":"8764","OBJECT_NAME":"STARLINK-1317","TIME_SYSTEM":"UTC","PERIAPSIS":"548.472","ECCENTRICITY":"0.00017880","PERIOD":"95.644","CLASSIFICATION_TYPE":"U","RCS_SIZE":"LARGE","NORAD_CAT_ID":"45365","FILE":"3161149","COUNTRY_CODE":"US","TLE_LINE2":"2 45365  53.0014 164.3010 0001788  78.5064 281.6124 15.05585709 87641","SITE":"AFETR","GP_ID":"187098974","INCLINATION":"53.0014","EPHEMERIS_TYPE":"0","MEAN_MOTION":"15.05585709","LAUNCH_DATE":"2020-03-18","MEAN_ANOMALY":"281.6124","TLE_LINE1":"1 45365U 20019F   21286.89210371  .00000641  00000-0  63129-4 0  9991","APOAPSIS":"550.949","REF_FRAME":"TEME","OBJECT_TYPE":"PAYLOAD","RA_OF_ASC_NODE":"164.3010","MEAN_MOTION_DDOT":"0.0000000000000","BSTAR":"0.00006312900000","MEAN_MOTION_DOT":"0.00000641","EPOCH":"2021-10-13T21:24:37.760544","DECAY_DATE":null,"OBJECT_ID":"2020-019F","SEMIMAJOR_AXIS":"6927.845","ARG_OF_PERICENTER":"78.5064","CENTER_NAME":"EARTH","MEAN_ELEMENT_THEORY":"SGP4","ELEMENT_SET_NO":"999"},{"MEAN_MOTION":"15.06413319","LAUNCH_DATE":"2020-03-18","MEAN_ANOMALY":"291.0087","TLE_LINE1":"1 45366U 20019G   21286.90742998  .00001499  00000-0  11947-3 0  9991","APOAPSIS":"548.357","REF_FRAME":"TEME","RA_OF_ASC_NODE":"184.2316","OBJECT_TYPE":"PAYLOAD","MEAN_MOTION_DDOT":"0.0000000000000","BSTAR":"0.00011947000000","MEAN_MOTION_DOT":"0.00001499","EPOCH":"2021-10-13T21:46:41.950272","DECAY_DATE":null,"OBJECT_ID":"2020-019G","SEMIMAJOR_AXIS":"6925.308","CENTER_NAME":"EARTH","ARG_OF_PERICENTER":"69.1085","MEAN_ELEMENT_THEORY":"SGP4","ELEMENT_SET_NO":"999","REV_AT_EPOCH":"8740","TIME_SYSTEM":"UTC","OBJECT_NAME":"STARLINK-1262","PERIAPSIS":"545.989","ECCENTRICITY":"0.00017100","PERIOD":"95.591","CLASSIFICATION_TYPE":"U","RCS_SIZE":"LARGE","NORAD_CAT_ID":"45366","FILE":"3161149","COUNTRY_CODE":"US","TLE_LINE2":"2 45366  53.0529 184.2316 0001710  69.1085 291.0087 15.06413319 87402","SITE":"AFETR","GP_ID":"187099224","INCLINATION":"53.0529","EPHEMERIS_TYPE":"0"},{"REF_FRAME":"TEME","APOAPSIS":"548.581","MEAN_MOTION_DDOT":"0.0000000000000","RA_OF_ASC_NODE":"184.1435","OBJECT_TYPE":"PAYLOAD","MEAN_MOTION_DOT":"0.00001261","BSTAR":"0.00010357000000","EPOCH":"2021-10-13T22:18:33.078528","MEAN_MOTION":"15.06398785","LAUNCH_DATE":"2020-03-18","TLE_LINE1":"1 45367U 20019H   21286.92954952  .00001261  00000-0  10357-3 0  9990","MEAN_ANOMALY":"289.7102","MEAN_ELEMENT_THEORY":"SGP4","SEMIMAJOR_AXIS":"6925.352","ARG_OF_PERICENTER":"70.4099","CENTER_NAME":"EARTH","ELEMENT_SET_NO":"999","DECAY_DATE":null,"OBJECT_ID":"2020-019H","RCS_SIZE":"LARGE","CLASSIFICATION_TYPE":"U","NORAD_CAT_ID":"45367","COUNTRY_CODE":"US","FILE":"3161149","REV_AT_EPOCH":"8740","OBJECT_NAME":"STARLINK-1273","TIME_SYSTEM":"UTC","PERIOD":"95.592","ECCENTRICITY":"0.00019690","PERIAPSIS":"545.854","INCLINATION":"53.0550","EPHEMERIS_TYPE":"0","TLE_LINE2":"2 45367  53.0550 184.1435 0001969  70.4099 289.7102 15.06398785 87405","SITE":"AFETR","GP_ID":"187099976"},{"EPOCH":"2021-10-13T21:36:05.294592","MEAN_MOTION_DOT":"0.00000861","BSTAR":"0.00007670700000","MEAN_MOTION_DDOT":"0.0000000000000","RA_OF_ASC_NODE":"184.2718","OBJECT_TYPE":"PAYLOAD","REF_FRAME":"TEME","APOAPSIS":"548.399","TLE_LINE1":"1 45368U 20019J   21286.90006128  .00000861  00000-0  76707-4 0  9999","MEAN_ANOMALY":"294.0826","LAUNCH_DATE":"2020-03-18","MEAN_MOTION":"15.06401362","ELEMENT_SET_NO":"999","MEAN_ELEMENT_THEORY":"SGP4","SEMIMAJOR_AXIS":"6925.344","CENTER_NAME":"EARTH","ARG_OF_PERICENTER":"66.0343","OBJECT_ID":"2020-019J","DECAY_DATE":null,"COUNTRY_CODE":"US","FILE":"3161149","NORAD_CAT_ID":"45368","RCS_SIZE":"LARGE","CLASSIFICATION_TYPE":"U","PERIOD":"95.592","ECCENTRICITY":"0.00017180","PERIAPSIS":"546.020","OBJECT_NAME":"STARLINK-1276","TIME_SYSTEM":"UTC","REV_AT_EPOCH":"8740","EPHEMERIS_TYPE":"0","INCLINATION":"53.0525","GP_ID":"187100223","SITE":"AFETR","TLE_LINE2":"2 45368  53.0525 184.2718 0001718  66.0343 294.0826 15.06401362 87406"},{"GP_ID":"187098475","SITE":"AFETR","TLE_LINE2":"2 45369  53.0537 184.2760 0003118  77.9302 282.2037 15.06410406 87401","EPHEMERIS_TYPE":"0","INCLINATION":"53.0537","ECCENTRICITY":"0.00031180","PERIAPSIS":"545.022","PERIOD":"95.591","TIME_SYSTEM":"UTC","OBJECT_NAME":"STARLINK-1277","REV_AT_EPOCH":"8740","FILE":"3161149","COUNTRY_CODE":"US","NORAD_CAT_ID":"45369","CLASSIFICATION_TYPE":"U","RCS_SIZE":"LARGE","OBJECT_ID":"2020-019K","DECAY_DATE":null,"ELEMENT_SET_NO":"999","SEMIMAJOR_AXIS":"6925.317","ARG_OF_PERICENTER":"77.9302","CENTER_NAME":"EARTH","MEAN_ELEMENT_THEORY":"SGP4","TLE_LINE1":"1 45369U 20019K   21286.89911745  .00003528  00000-0  25559-3 0  9999","MEAN_ANOMALY":"282.2037","LAUNCH_DATE":"2020-03-18","MEAN_MOTION":"15.06410406","EPOCH":"2021-10-13T21:34:43.747680","BSTAR":"0.00025559000000","MEAN_MOTION_DOT":"0.00003528","OBJECT_TYPE":"PAYLOAD","RA_OF_ASC_NODE":"184.2760","MEAN_MOTION_DDOT":"0.0000000000000","APOAPSIS":"549.341","REF_FRAME":"TEME"},{"CLASSIFICATION_TYPE":"U","RCS_SIZE":"LARGE","NORAD_CAT_ID":"45370","FILE":"3161149","COUNTRY_CODE":"US","REV_AT_EPOCH":"8741","TIME_SYSTEM":"UTC","OBJECT_NAME":"STARLINK-1281","PERIAPSIS":"546.003","ECCENTRICITY":"0.00018030","PERIOD":"95.593","INCLINATION":"53.0526","EPHEMERIS_TYPE":"0","TLE_LINE2":"2 45370  53.0526 184.0153 0001803  74.6196 285.4992 15.06387423 87417","SITE":"AFETR","GP_ID":"187098725","APOAPSIS":"548.501","REF_FRAME":"TEME","RA_OF_ASC_NODE":"184.0153","OBJECT_TYPE":"PAYLOAD","MEAN_MOTION_DDOT":"0.0000000000000","BSTAR":"-0.00006248800000","MEAN_MOTION_DOT":"-0.00001212","EPOCH":"2021-10-13T22:55:43.101408","MEAN_MOTION":"15.06387423","LAUNCH_DATE":"2020-03-18","MEAN_ANOMALY":"285.4992","TLE_LINE1":"1 45370U 20019L   21286.95535997 -.00001212  00000-0 -62488-4 0  9992","CENTER_NAME":"EARTH","SEMIMAJOR_AXIS":"6925.387","ARG_OF_PERICENTER":"74.6196","MEAN_ELEMENT_THEORY":"SGP4","ELEMENT_SET_NO":"999","DECAY_DATE":null,"OBJECT_ID":"2020-019L"},{"EPHEMERIS_TYPE":"0","INCLINATION":"53.0526","GP_ID":"187099477","SITE":"AFETR","TLE_LINE2":"2 45371  53.0526 184.1892 0001866  68.3834 291.7353 15.06409562 87406","COUNTRY_CODE":"US","FILE":"3161149","NORAD_CAT_ID":"45371","RCS_SIZE":"LARGE","CLASSIFICATION_TYPE":"U","PERIOD":"95.592","PERIAPSIS":"545.892","ECCENTRICITY":"0.00018660","TIME_SYSTEM":"UTC","OBJECT_NAME":"STARLINK-1287","REV_AT_EPOCH":"8740","ELEMENT_SET_NO":"999","MEAN_ELEMENT_THEORY":"SGP4","SEMIMAJOR_AXIS":"6925.319","CENTER_NAME":"EARTH","ARG_OF_PERICENTER":"68.3834","OBJECT_ID":"2020-019M","DECAY_DATE":null,"EPOCH":"2021-10-13T22:02:37.395168","MEAN_MOTION_DOT":"0.00001508","BSTAR":"0.00012006000000","MEAN_MOTION_DDOT":"0.0000000000000","RA_OF_ASC_NODE":"184.1892","OBJECT_TYPE":"PAYLOAD","REF_FRAME":"TEME","APOAPSIS":"548.477","MEAN_ANOMALY":"291.7353","TLE_LINE1":"1 45371U 20019M   21286.91848837  .00001508  00000-0  12006-3 0  9995","LAUNCH_DATE":"2020-03-18","MEAN_MOTION":"15.06409562"},{"EPOCH":"2021-10-13T22:23:51.899712","MEAN_MOTION_DOT":"0.00001420","BSTAR":"0.00011421000000","MEAN_MOTION_DDOT":"0.0000000000000","OBJECT_TYPE":"PAYLOAD","RA_OF_ASC_NODE":"184.1249","REF_FRAME":"TEME","APOAPSIS":"548.508","TLE_LINE1":"1 45372U 20019N   21286.93323958  .00001420  00000-0  11421-3 0  9993","MEAN_ANOMALY":"284.4152","LAUNCH_DATE":"2020-03-18","MEAN_MOTION":"15.06410570","ELEMENT_SET_NO":"999","MEAN_ELEMENT_THEORY":"SGP4","ARG_OF_PERICENTER":"75.7050","SEMIMAJOR_AXIS":"6925.316","CENTER_NAME":"EARTH","OBJECT_ID":"2020-019N","DECAY_DATE":null,"COUNTRY_CODE":"US","FILE":"3161149","NORAD_CAT_ID":"45372","RCS_SIZE":"LARGE","CLASSIFICATION_TYPE":"U","PERIOD":"95.591","ECCENTRICITY":"0.00019160","PERIAPSIS":"545.854","TIME_SYSTEM":"UTC","OBJECT_NAME":"STARLINK-1288","REV_AT_EPOCH":"8740","EPHEMERIS_TYPE":"0","INCLINATION":"53.0545","GP_ID":"187099724","SITE":"AFETR","TLE_LINE2":"2 45372  53.0545 184.1249 0001916  75.7050 284.4152 15.06410570 87409"},{"BSTAR":"-0.00002895800000","MEAN_MOTION_DOT":"-0.00000713","EPOCH":"2021-10-13T21:57:19.241856","APOAPSIS":"548.513","REF_FRAME":"TEME","OBJECT_TYPE":"PAYLOAD","RA_OF_ASC_NODE":"184.2091","MEAN_MOTION_DDOT":"0.0000000000000","LAUNCH_DATE":"2020-03-18","MEAN_ANOMALY":"283.5640","TLE_LINE1":"1 45373U 20019P   21286.91480604 -.00000713  00000-0 -28958-4 0  9994","MEAN_MOTION":"15.06401560","ELEMENT_SET_NO":"999","ARG_OF_PERICENTER":"76.5559","SEMIMAJOR_AXIS":"6925.344","CENTER_NAME":"EARTH","MEAN_ELEMENT_THEORY":"SGP4","DECAY_DATE":null,"OBJECT_ID":"2020-019P","NORAD_CAT_ID":"45373","FILE":"3161149","COUNTRY_CODE":"US","CLASSIFICATION_TYPE":"U","RCS_SIZE":"LARGE","ECCENTRICITY":"0.00018830","PERIAPSIS":"545.905","PERIOD":"95.592","REV_AT_EPOCH":"8740","TIME_SYSTEM":"UTC","OBJECT_NAME":"STARLINK-1295","INCLINATION":"53.0528","EPHEMERIS_TYPE":"0","GP_ID":"187098975","TLE_LINE2":"2 45373  53.0528 184.2091 0001883  76.5559 283.5640 15.06401560 87404","SITE":"AFETR"}];
